[{"OBJECT_NAME":"STARLINK-34089","OBJECT_ID":"2025-102T","EPOCH":"2026-03-09T12:46:59.695968","MEAN_MOTION":14.98352565,"ECCENTRICITY":0.00033576,"INCLINATION":70.0009,"RA_OF_ASC_NODE":115.0499,"ARG_OF_PERICENTER":269.0901,"MEAN_ANOMALY":90.9874,"EPHEMERIS_TYPE":0,"CLASSIFICATION_TYPE":"U","NORAD_CAT_ID":64039,"ELEMENT_SET_NO":999,"REV_AT_EPOCH":4592,"BSTAR":0.00043099448,"MEAN_MOTION_DOT":5.056e-5,"MEAN_MOTION_DDOT":0},{"OBJECT_NAME":"NOAA 16 DEB","OBJECT_ID":"2000-055HK","EPOCH":"2026-03-09T11:22:55.184448","MEAN_MOTION":14.96713123,"ECCENTRICITY":0.00044813,"INCLINATION":98.9091,"RA_OF_ASC_NODE":257.3123,"ARG_OF_PERICENTER":226.904,"MEAN_ANOMALY":133.1803,"EPHEMERIS_TYPE":0,"CLASSIFICATION_TYPE":"U","NORAD_CAT_ID":41307,"ELEMENT_SET_NO":999,"REV_AT_EPOCH":53055,"BSTAR":0.0073865996,"MEAN_MOTION_DOT":0.00085329,"MEAN_MOTION_DDOT":0}]
